CAS-2T & KS-1Q          
1 41847U 16066G   20162.17895312  .00000074  00000-0  22417-4 0  9991
2 41847  98.6541 212.6209 0364548 250.5592 105.5870 14.38069114188379
NAYIF-1 (EO-88)         
1 42017U 17008BX  20162.14178828  .00001257  00000-0  50924-4 0  9999
2 42017  97.3600 229.8106 0006050   4.8813 355.2484 15.26485122184431
MAX VALIER SAT          
1 42778U 17036P   20162.37616492  .00000842  00000-0  39085-4 0  9997
2 42778  97.3052 216.2078 0013573  53.0575 307.1903 15.22612981164658
RADFXSAT (FOX-1B)       
1 43017U 17073E   20162.21818540  .00000678  00000-0  57273-4 0  9992
2 43017  97.7235  74.7333 0258514  74.0188 288.9336 14.78929666138098
FOX-1D (AO-92)          
1 43137U 18004AC  20162.45920642  .00000907  00000-0  40225-4 0  9997
2 43137  97.4459 233.6673 0010868  82.4314 277.8157 15.24115498133984
DIWATA-2B               
1 43678U 18084H   20162.43064298  .00000337  00000-0  39284-4 0  9999
2 43678  97.8831 280.8338 0009513 192.3640 167.7361 14.91634438 87976
ES'HAIL 2               
1 43700U 18090A   20162.40882646  .00000136  00000-0  00000-0 0  9991
2 43700   0.0173   9.5479 0001499  91.2556 331.3632  1.00271740  5639
FOX-1CLIFF (AO-95)      
1 43770U 18099N   20162.14607639  .00000673  00000-0  66720-4 0  9996
2 43770  97.7059 233.6539 0013677 216.2146 143.8150 14.94986701 82828
ITASAT 1                
1 43786U 18099AE  20162.14465766  .00000624  00000-0  61746-4 0  9995
2 43786  97.7075 234.0668 0014479 209.7819 150.2579 14.95325873 82843
JY1SAT (JO-97)          
1 43803U 18099AX  20162.16005027  .00000485  00000-0  48905-4 0  9994
2 43803  97.7037 233.9025 0014319 209.9704 150.0699 14.95504630 82845
PSAT2 (NO-104)          
1 44354U 19036R   20162.08722196  .00005045  00000-0  69822-4 0  9990
2 44354  28.5334  68.9683 0364487 232.3657 124.3324 15.03409798 52717
BRICSAT2 (NO-103)       
1 44355U 19036S   20162.38567330  .00008656  00000-0  11773-3 0  9993
2 44355  28.5337  58.7074 0343676 249.0717 107.2768 15.08684739 52842
JAISAT-1                
1 44419U 19038F   20162.14701085  .00000651  00000-0  40689-4 0  9993
2 44419  97.5381 123.8285 0022250 151.9101 208.3336 15.12772681 51499
DUCHIFAT-3              
1 44854U 19089C   20162.30079203  .00000265  00000-0  27837-4 0  9991
2 44854  36.9652 140.6212 0008744 358.4810   1.5902 14.99064568 27228
RS-44 & BREEZE-KM R/B   
1 44909U 19096E   20162.00899526  .00000009  00000-0 -28394-5 0  9992
2 44909  82.5215   0.2626 0216394 243.8051 114.0658 12.79707793 21230
ORBITAL FACTORY 2 (OF-2)
1 45113U 19071C   20162.11941389  .00001735  00000-0  64539-4 0  9996
2 45113  51.6453  38.9769 0013423  33.7925 326.3910 15.33332481 20003
HUSKYSAT-1              
1 45119U 19071J   20162.03368727  .00001056  00000-0  43579-4 0  9999
2 45119  51.6451  39.1550 0012640  30.0423 330.1282 15.33549511 19985
